start=new Date('2023-02-07T00:00:00.000Z').valueOf();
sats=[{"TLE_LINE2":"2 55318  69.9970  17.2104 0003629 264.7636 139.1330 15.71054078  1305","REV_AT_EPOCH":"130","ARG_OF_PERICENTER":"264.7636","CENTER_NAME":"EARTH","TIME_SYSTEM":"UTC","LAUNCH_DATE":"2023-01-19","MEAN_MOTION_DDOT":"0.0000000000000","ECCENTRICITY":"0.00036290","GP_ID":"224654231","NORAD_CAT_ID":"55318","MEAN_MOTION":"15.71054078","OBJECT_ID":"2023-010BB","TLE_LINE1":"1 55318U 23010BB  23037.91667824 -.00857225  00000-0 -75222-2 0  9997","OBJECT_NAME":"STARLINK-5180","MEAN_ELEMENT_THEORY":"SGP4","RA_OF_ASC_NODE":"17.2104","INCLINATION":"69.9970","EPHEMERIS_TYPE":"0","REF_FRAME":"TEME","APOAPSIS":"358.329","RCS_SIZE":"LARGE","EPOCH":"2023-02-06T22:00:00.999936","CLASSIFICATION_TYPE":"U","OBJECT_TYPE":"PAYLOAD","SEMIMAJOR_AXIS":"6734.020","SITE":"AFWTR","ELEMENT_SET_NO":"999","FILE":"3776034","MEAN_MOTION_DOT":"-0.00857225","DECAY_DATE":null,"PERIOD":"91.658","COUNTRY_CODE":"US","BSTAR":"-0.00752220000000","PERIAPSIS":"353.441","MEAN_ANOMALY":"139.1330"},{"RCS_SIZE":"LARGE","CLASSIFICATION_TYPE":"U","EPOCH":"2023-02-07T00:00:00.999648","OBJECT_TYPE":"PAYLOAD","RA_OF_ASC_NODE":"16.9755","MEAN_ELEMENT_THEORY":"SGP4","INCLINATION":"69.9960","EPHEMERIS_TYPE":"0","APOAPSIS":"358.645","REF_FRAME":"TEME","COUNTRY_CODE":"US","PERIOD":"91.666","BSTAR":"-0.00779280000000","MEAN_ANOMALY":"248.3543","PERIAPSIS":"353.881","SITE":"AFWTR","SEMIMAJOR_AXIS":"6734.398","ELEMENT_SET_NO":"999","FILE":"3775994","MEAN_MOTION_DOT":"-0.00880582","DECAY_DATE":null,"REV_AT_EPOCH":"341","ARG_OF_PERICENTER":"267.2650","TLE_LINE2":"2 55319  69.9960  16.9755 0003537 267.2650 248.3543 15.70921820  3415","OBJECT_ID":"2023-010BC","TLE_LINE1":"1 55319U 23010BC  23038.00001157 -.00880582  00000-0 -77928-2 0  9997","OBJECT_NAME":"STARLINK-5196","CENTER_NAME":"EARTH","TIME_SYSTEM":"UTC","LAUNCH_DATE":"2023-01-19","MEAN_MOTION_DDOT":"0.0000000000000","GP_ID":"224627753","ECCENTRICITY":"0.00035370","MEAN_MOTION":"15.70921820","NORAD_CAT_ID":"55319"},{"MEAN_MOTION_DOT":"-0.00804883","DECAY_DATE":null,"SITE":"AFETR","SEMIMAJOR_AXIS":"6700.170","ELEMENT_SET_NO":"999","FILE":"3775374","BSTAR":"-0.00400250000000","PERIAPSIS":"320.979","MEAN_ANOMALY":"83.3472","PERIOD":"90.968","COUNTRY_CODE":"US","EPHEMERIS_TYPE":"0","REF_FRAME":"TEME","APOAPSIS":"323.090","MEAN_ELEMENT_THEORY":"SGP4","RA_OF_ASC_NODE":"334.0406","INCLINATION":"42.9994","OBJECT_TYPE":"PAYLOAD","RCS_SIZE":null,"EPOCH":"2023-02-06T22:00:00.999936","CLASSIFICATION_TYPE":"U","GP_ID":"224613820","ECCENTRICITY":"0.00015760","NORAD_CAT_ID":"55331","MEAN_MOTION":"15.82975074","TIME_SYSTEM":"UTC","CENTER_NAME":"EARTH","MEAN_MOTION_DDOT":"0.0000000000000","LAUNCH_DATE":"2023-01-26","OBJECT_NAME":"STARLINK-5492","OBJECT_ID":"2023-013A","TLE_LINE1":"1 55331U 23013A   23037.91667824 -.00804883  00000-0 -40025-2 0  9990","TLE_LINE2":"2 55331  42.9994 334.0406 0001576 272.4682  83.3472 15.82975074  2283","ARG_OF_PERICENTER":"272.4682","REV_AT_EPOCH":"228"},{"TLE_LINE1":"1 55332U 23013B   23037.91667824  .00198389  22490-4  63068-3 0  9990","OBJECT_ID":"2023-013B","OBJECT_NAME":"STARLINK-5491","LAUNCH_DATE":"2023-01-26","MEAN_MOTION_DDOT":"0.0000224900000","TIME_SYSTEM":"UTC","CENTER_NAME":"EARTH","MEAN_MOTION":"15.90219091","NORAD_CAT_ID":"55332","GP_ID":"224614329","ECCENTRICITY":"0.00173970","REV_AT_EPOCH":"228","ARG_OF_PERICENTER":"246.2291","TLE_LINE2":"2 55332  42.9969 333.7404 0017397 246.2291 228.1409 15.90219091  2281","COUNTRY_CODE":"US","PERIOD":"90.554","MEAN_ANOMALY":"228.1409","PERIAPSIS":"290.050","BSTAR":"0.00063068000000","FILE":"3775375","SEMIMAJOR_AXIS":"6679.806","SITE":"AFETR","ELEMENT_SET_NO":"999","DECAY_DATE":null,"MEAN_MOTION_DOT":"0.00198389","CLASSIFICATION_TYPE":"U","EPOCH":"2023-02-06T22:00:00.999936","RCS_SIZE":null,"OBJECT_TYPE":"PAYLOAD","INCLINATION":"42.9969","RA_OF_ASC_NODE":"333.7404","MEAN_ELEMENT_THEORY":"SGP4","APOAPSIS":"313.292","REF_FRAME":"TEME","EPHEMERIS_TYPE":"0"},{"MEAN_ANOMALY":"76.6090","PERIAPSIS":"320.948","BSTAR":"-0.00389310000000","COUNTRY_CODE":"US","PERIOD":"90.968","DECAY_DATE":null,"MEAN_MOTION_DOT":"-0.00784843","FILE":"3776034","SITE":"AFETR","ELEMENT_SET_NO":"999","SEMIMAJOR_AXIS":"6700.161","OBJECT_TYPE":"PAYLOAD","EPOCH":"2023-02-06T22:00:00.999936","CLASSIFICATION_TYPE":"U","RCS_SIZE":null,"APOAPSIS":"323.103","REF_FRAME":"TEME","EPHEMERIS_TYPE":"0","INCLINATION":"42.9997","RA_OF_ASC_NODE":"334.0393","MEAN_ELEMENT_THEORY":"SGP4","OBJECT_NAME":"STARLINK-5493","TLE_LINE1":"1 55333U 23013C   23037.91667824 -.00784843  00000-0 -38931-2 0  9998","OBJECT_ID":"2023-013C","MEAN_MOTION":"15.82978253","NORAD_CAT_ID":"55333","GP_ID":"224654979","ECCENTRICITY":"0.00016080","LAUNCH_DATE":"2023-01-26","MEAN_MOTION_DDOT":"0.0000000000000","CENTER_NAME":"EARTH","TIME_SYSTEM":"UTC","ARG_OF_PERICENTER":"279.9673","REV_AT_EPOCH":"130","TLE_LINE2":"2 55333  42.9997 334.0393 0001608 279.9673  76.6090 15.82978253  1306"},{"EPHEMERIS_TYPE":"0","APOAPSIS":"323.109","REF_FRAME":"TEME","RA_OF_ASC_NODE":"334.0398","MEAN_ELEMENT_THEORY":"SGP4","INCLINATION":"42.9993","OBJECT_TYPE":"PAYLOAD","RCS_SIZE":null,"CLASSIFICATION_TYPE":"U","EPOCH":"2023-02-06T22:00:00.999936","MEAN_MOTION_DOT":"-0.00789985","DECAY_DATE":null,"SITE":"AFETR","ELEMENT_SET_NO":"999","SEMIMAJOR_AXIS":"6700.175","FILE":"3776034","BSTAR":"-0.00392190000000","MEAN_ANOMALY":"70.4621","PERIAPSIS":"320.970","COUNTRY_CODE":"US","PERIOD":"90.968","TLE_LINE2":"2 55334  42.9993 334.0398 0001596 285.7250  70.4621 15.82973278  1304","ARG_OF_PERICENTER":"285.7250","REV_AT_EPOCH":"130","GP_ID":"224653734","ECCENTRICITY":"0.00015960","MEAN_MOTION":"15.82973278","NORAD_CAT_ID":"55334","CENTER_NAME":"EARTH","TIME_SYSTEM":"UTC","MEAN_MOTION_DDOT":"0.0000000000000","LAUNCH_DATE":"2023-01-26","OBJECT_NAME":"STARLINK-5652","OBJECT_ID":"2023-013D","TLE_LINE1":"1 55334U 23013D   23037.91667824 -.00789985  00000-0 -39219-2 0  9991"},{"BSTAR":"-0.00346430000000","MEAN_ANOMALY":"75.0780","PERIAPSIS":"321.060","COUNTRY_CODE":"US","PERIOD":"90.970","MEAN_MOTION_DOT":"-0.00703684","DECAY_DATE":null,"SITE":"AFETR","SEMIMAJOR_AXIS":"6700.271","ELEMENT_SET_NO":"999","FILE":"3776034","OBJECT_TYPE":"PAYLOAD","RCS_SIZE":null,"CLASSIFICATION_TYPE":"U","EPOCH":"2023-02-06T22:00:00.999936","EPHEMERIS_TYPE":"0","APOAPSIS":"323.213","REF_FRAME":"TEME","RA_OF_ASC_NODE":"334.0366","MEAN_ELEMENT_THEORY":"SGP4","INCLINATION":"42.9996","OBJECT_NAME":"STARLINK-5660","OBJECT_ID":"2023-013E","TLE_LINE1":"1 55335U 23013E   23037.91667824 -.00703684  00000-0 -34643-2 0  9990","ECCENTRICITY":"0.00016060","GP_ID":"224653983","MEAN_MOTION":"15.82938953","NORAD_CAT_ID":"55335","CENTER_NAME":"EARTH","TIME_SYSTEM":"UTC","MEAN_MOTION_DDOT":"0.0000000000000","LAUNCH_DATE":"2023-01-26","ARG_OF_PERICENTER":"282.2695","REV_AT_EPOCH":"130","TLE_LINE2":"2 55335  42.9996 334.0366 0001606 282.2695  75.0780 15.82938953  1308"},{"PERIAPSIS":"293.371","MEAN_ANOMALY":"47.8113","BSTAR":"-0.00217450000000","PERIOD":"90.412","COUNTRY_CODE":"US","DECAY_DATE":null,"MEAN_MOTION_DOT":"-0.00778908","FILE":"3775384","ELEMENT_SET_NO":"999","SITE":"AFETR","SEMIMAJOR_AXIS":"6672.830","OBJECT_TYPE":"PAYLOAD","EPOCH":"2023-02-06T22:00:00.999936","CLASSIFICATION_TYPE":"U","RCS_SIZE":null,"REF_FRAME":"TEME","APOAPSIS":"296.020","EPHEMERIS_TYPE":"0","INCLINATION":"42.9994","MEAN_ELEMENT_THEORY":"SGP4","RA_OF_ASC_NODE":"333.1643","OBJECT_NAME":"STARLINK-5655","TLE_LINE1":"1 55336U 23013F   23037.91667824 -.00778908  19310-3 -21745-2 0  9998","OBJECT_ID":"2023-013F","NORAD_CAT_ID":"55336","MEAN_MOTION":"15.92713489","ECCENTRICITY":"0.00019850","GP_ID":"224613895","MEAN_MOTION_DDOT":"0.0001931000000","LAUNCH_DATE":"2023-01-26","TIME_SYSTEM":"UTC","CENTER_NAME":"EARTH","ARG_OF_PERICENTER":"297.9356","REV_AT_EPOCH":"228","TLE_LINE2":"2 55336  42.9994 333.1643 0001985 297.9356  47.8113 15.92713489  2283"},{"SEMIMAJOR_AXIS":"6676.766","SITE":"AFETR","ELEMENT_SET_NO":"999","FILE":"3775377","MEAN_MOTION_DOT":"-0.00888890","DECAY_DATE":null,"COUNTRY_CODE":"US","PERIOD":"90.492","BSTAR":"-0.00264060000000","MEAN_ANOMALY":"252.3904","PERIAPSIS":"287.781","RA_OF_ASC_NODE":"333.6771","MEAN_ELEMENT_THEORY":"SGP4","INCLINATION":"42.9996","EPHEMERIS_TYPE":"0","APOAPSIS":"309.480","REF_FRAME":"TEME","RCS_SIZE":null,"CLASSIFICATION_TYPE":"U","EPOCH":"2023-02-06T22:00:00.999936","OBJECT_TYPE":"PAYLOAD","CENTER_NAME":"EARTH","TIME_SYSTEM":"UTC","MEAN_MOTION_DDOT":"0.0002421500000","LAUNCH_DATE":"2023-01-26","GP_ID":"224613866","ECCENTRICITY":"0.00162500","MEAN_MOTION":"15.91305522","NORAD_CAT_ID":"55337","OBJECT_ID":"2023-013G","TLE_LINE1":"1 55337U 23013G   23037.91667824 -.00888890  24215-3 -26406-2 0  9990","OBJECT_NAME":"STARLINK-5667","TLE_LINE2":"2 55337  42.9996 333.6771 0016250 246.2449 252.3904 15.91305522  2289","REV_AT_EPOCH":"228","ARG_OF_PERICENTER":"246.2449"},{"PERIOD":"90.966","COUNTRY_CODE":"US","PERIAPSIS":"320.877","MEAN_ANOMALY":"78.0387","BSTAR":"-0.00389360000000","FILE":"3776034","ELEMENT_SET_NO":"999","SITE":"AFETR","SEMIMAJOR_AXIS":"6700.080","DECAY_DATE":null,"MEAN_MOTION_DOT":"-0.00785904","EPOCH":"2023-02-06T22:00:00.999936","CLASSIFICATION_TYPE":"U","RCS_SIZE":null,"OBJECT_TYPE":"PAYLOAD","INCLINATION":"42.9996","MEAN_ELEMENT_THEORY":"SGP4","RA_OF_ASC_NODE":"334.0367","REF_FRAME":"TEME","APOAPSIS":"323.014","EPHEMERIS_TYPE":"0","TLE_LINE1":"1 55338U 23013H   23037.91667824 -.00785904  00000-0 -38936-2 0  9997","OBJECT_ID":"2023-013H","OBJECT_NAME":"STARLINK-5658","LAUNCH_DATE":"2023-01-26","MEAN_MOTION_DDOT":"0.0000000000000","CENTER_NAME":"EARTH","TIME_SYSTEM":"UTC","NORAD_CAT_ID":"55338","MEAN_MOTION":"15.83006624","GP_ID":"224654233","ECCENTRICITY":"0.00015950","REV_AT_EPOCH":"130","ARG_OF_PERICENTER":"279.6277","TLE_LINE2":"2 55338  42.9996 334.0367 0001595 279.6277  78.0387 15.83006624  1303"}];
